TISAT 1                 
1 36799U 10035E   26068.75703561  .00024554  00000+0  91005-3 0  9996
2 36799  98.0645   6.8512 0001343 159.3030 200.8262 15.27628633852505
HAWK-7B                 
1 56193U 23054R   26068.68903567  .00007955  00000+0  31011-3 0  9998
2 56193  97.2859 316.7839 0003661  61.5878 298.5730 15.26206341161848
